{
    "links": {
        "self": "http://www.neowsapp.com/rest/v1/neo/3484923?api_key=iIulBulltgU6a56xZRHN4H3l9WmuAYTsLGpBGhQ2"
    },
    "id": "3484923",
    "neo_reference_id": "3484923",
    "name": "(2010 AC3)",
    "designation": "2010 AC3",
    "nasa_jpl_url": "http://ssd.jpl.nasa.gov/sbdb.cgi?sstr=3484923",
    "absolute_magnitude_h": 22.5,
    "estimated_diameter": {
        "kilometers": {
            "estimated_diameter_min": 0.0840533402,
            "estimated_diameter_max": 0.1879489824
        },
        "meters": {
            "estimated_diameter_min": 84.0533402073,
            "estimated_diameter_max": 187.9489824394
        },
        "miles": {
            "estimated_diameter_min": 0.0522283081,
            "estimated_diameter_max": 0.1167860472
        },
        "feet": {
            "estimated_diameter_min": 275.7655606856,
            "estimated_diameter_max": 616.6305395464
        }
    },
    "is_potentially_hazardous_asteroid": false,
    "close_approach_data": [
        {
            "close_approach_date": "2009-12-24",
            "close_approach_date_full": "2009-Dec-24 06:03",
            "epoch_date_close_approach": 1261634580000,
            "relative_velocity": {
                "kilometers_per_second": "13.5528986485",
                "kilometers_per_hour": "48790.435134776",
                "miles_per_hour": "30316.478986939"
            },
            "miss_distance": {
                "astronomical": "0.1879868925",
                "lunar": "73.1269011825",
                "kilometers": "28122438.705918975",
                "miles": "17474473.109772855"
            },
            "orbiting_body": "Earth"
        }
    ],
    "orbital_data": {
        "orbit_id": "7",
        "orbit_determination_date": "2017-04-06 08:58:39",
        "first_observation_date": "2010-01-08",
        "last_observation_date": "2010-01-14",
        "data_arc_in_days": 6,
        "observations_used": 22,
        "orbit_uncertainty": "9",
        "minimum_orbit_intersection": ".1879",
        "jupiter_tisserand_invariant": "4.005",
        "epoch_osculation": "2455205.5",
        "eccentricity": ".3567856652880629",
        "semi_major_axis": "1.721621664820973",
        "inclination": "23.93910110846981",
        "ascending_node_longitude": "281.3262527211924",
        "orbital_period": "825.0969953786853",
        "perihelion_distance": "1.10737173376348",
        "perihelion_argument": "137.224169633649",
        "aphelion_distance": "2.335871595878467",
        "perihelion_time": "2455154.714863202928",
        "mean_anomaly": "22.1581818251016",
        "mean_motion": ".4363123390538769",
        "equinox": "J2000",
        "orbit_class": {
            "orbit_class_type": "AMO",
            "orbit_class_description": "Near-Earth asteroid orbits similar to that of 1221 Amor",
            "orbit_class_range": "1.017 AU < q (perihelion) < 1.3 AU"
        }
    },
    "is_sentry_object": false
}